STARLINK-4609           
1 53619U 22104AH  26068.74642396 -.00000885  00000+0 -37526-4 0  9995
2 53619  53.2168 233.8605 0001162  88.6909 271.4217 15.08822218195644
DISKSAT A               
1 67222U 25305D   26068.54789610  .00013824  00000+0  90452-3 0  9996
2 67222  45.0023 251.6019 0004082 318.1929  41.8634 15.07741062 12266
